[{"OBJECT_NAME":"STARLINK-35484","OBJECT_ID":"2025-225P","EPOCH":"2026-03-09T13:51:54.482688","MEAN_MOTION":15.30196186,"ECCENTRICITY":0.0001171,"INCLINATION":53.1594,"RA_OF_ASC_NODE":166.008,"ARG_OF_PERICENTER":21.9323,"MEAN_ANOMALY":338.1728,"EPHEMERIS_TYPE":0,"CLASSIFICATION_TYPE":"U","NORAD_CAT_ID":65923,"ELEMENT_SET_NO":999,"REV_AT_EPOCH":2439,"BSTAR":0.00042425,"MEAN_MOTION_DOT":0.00012225,"MEAN_MOTION_DDOT":0},{"OBJECT_NAME":"CZ-4B DEB","OBJECT_ID":"2010-051E","EPOCH":"2026-03-08T22:01:50.125728","MEAN_MOTION":15.23766972,"ECCENTRICITY":0.00561086,"INCLINATION":97.769,"RA_OF_ASC_NODE":240.5013,"ARG_OF_PERICENTER":301.1291,"MEAN_ANOMALY":58.4449,"EPHEMERIS_TYPE":0,"CLASSIFICATION_TYPE":"U","NORAD_CAT_ID":38184,"ELEMENT_SET_NO":999,"REV_AT_EPOCH":82066,"BSTAR":0.0024566319,"MEAN_MOTION_DOT":0.00062123,"MEAN_MOTION_DDOT":0}]
